{"type": "FeatureCollection", "features": [ {"type": "Feature", "properties": {"norad_id": 35890, "name": "COSMOS 2251 DEB", "group": "cosmos-2251-debris", "lat": -66.35205963309484, "lon": -171.59784744717135, "alt_km": 691.7169387447775, "timestamp": "2025-12-19T14:48:36.645028+00:00", "meta": {"OBJECT_NAME": "COSMOS 2251 DEB", "OBJECT_ID": "1993-036AUD", "EPOCH": "2025-12-16T22:53:46.078656", "MEAN_MOTION": 14.57543512, "ECCENTRICITY": 0.00539437, "INCLINATION": 73.9365, "RA_OF_ASC_NODE": 234.6414, "ARG_OF_PERICENTER": 358.5125, "MEAN_ANOMALY": 1.5869, "EPHEMERIS_TYPE": 0, "CLASSIFICATION_TYPE": "U", "NORAD_CAT_ID": 35890, "ELEMENT_SET_NO": 999, "REV_AT_EPOCH": 65212, "BSTAR": 0.0012168345, "MEAN_MOTION_DOT": 5.621e-05, "MEAN_MOTION_DDOT": 0}, "tle": {"line1": "1 35890U 93036AUD 25350.95400554  .00005621  00000+0  12168-2 0  9996", "line2": "2 35890  73.9365 234.6414 0053943 358.5125   1.5869 14.57543512652129"}}, "geometry": {"type": "Point", "coordinates": [-171.59784744717135, -66.35205963309484]}}, {"type": "Feature", "properties": {"norad_id": 35891, "name": "COSMOS 2251 DEB", "group": "cosmos-2251-debris", "lat": -73.64202681693595, "lon": -22.844883009352948, "alt_km": 455.8084410789643, "timestamp": "2025-12-19T14:48:36.645038+00:00", "meta": {"OBJECT_NAME": "COSMOS 2251 DEB", "OBJECT_ID": "1993-036AUE", "EPOCH": "2025-12-18T00:04:56.129088", "MEAN_MOTION": 15.33761767, "ECCENTRICITY": 0.00426193, "INCLINATION": 73.9894, "RA_OF_ASC_NODE": 82.5774, "ARG_OF_PERICENTER": 212.1701, "MEAN_ANOMALY": 147.6903, "EPHEMERIS_TYPE": 0, "CLASSIFICATION_TYPE": "U", "NORAD_CAT_ID": 35891, "ELEMENT_SET_NO": 999, "REV_AT_EPOCH": 67301, "BSTAR": 0.0011390165, "MEAN_MOTION_DOT": 0.00038445, "MEAN_MOTION_DDOT": 0}, "tle": {"line1": "1 35891U 93036AUE 25352.00342742  .00038445  00000+0  11390-2 0  9995", "line2": "2 35891  73.9894  82.5774 0042619 212.1701 147.6903 15.33761767673010"}}, "geometry": {"type": "Point", "coordinates": [-22.844883009352948, -73.64202681693595]}}, {"type": "Feature", "properties": {"norad_id": 35895, "name": "COSMOS 2251 DEB", "group": "cosmos-2251-debris", "lat": -16.872585405216853, "lon": 160.7167040827341, "alt_km": 973.7827305312112, "timestamp": "2025-12-19T14:48:36.645049+00:00", "meta": {"OBJECT_NAME": "COSMOS 2251 DEB", "OBJECT_ID": "1993-036AUJ", "EPOCH": "2025-12-11T07:10:31.732032", "MEAN_MOTION": 14.01513994, "ECCENTRICITY": 0.01987879, "INCLINATION": 74.0502, "RA_OF_ASC_NODE": 350.1634, "ARG_OF_PERICENTER": 88.7843, "MEAN_ANOMALY": 273.6056, "EPHEMERIS_TYPE": 0, "CLASSIFICATION_TYPE": "U", "NORAD_CAT_ID": 35895, "ELEMENT_SET_NO": 999, "REV_AT_EPOCH": 58992, "BSTAR": 0.0020881347, "MEAN_MOTION_DOT": 3.73e-05, "MEAN_MOTION_DDOT": 0}, "tle": {"line1": "1 35895U 93036AUJ 25345.29897838  .00003730  00000+0  20881-2 0  9997", "line2": "2 35895  74.0502 350.1634 0198787  88.7843 273.6056 14.01513994589929"}}, "geometry": {"type": "Point", "coordinates": [160.7167040827341, -16.872585405216853]}}, {"type": "Feature", "properties": {"norad_id": 35898, "name": "COSMOS 2251 DEB", "group": "cosmos-2251-debris", "lat": -25.63976034112676, "lon": 111.47287914504426, "alt_km": 631.2331816036831, "timestamp": "2025-12-19T14:48:36.645059+00:00", "meta": {"OBJECT_NAME": "COSMOS 2251 DEB", "OBJECT_ID": "1993-036AUM", "EPOCH": "2025-12-17T02:32:30.687072", "MEAN_MOTION": 14.94779467, "ECCENTRICITY": 0.00792454, "INCLINATION": 73.9918, "RA_OF_ASC_NODE": 288.6268, "ARG_OF_PERICENTER": 70.8936, "MEAN_ANOMALY": 307.548, "EPHEMERIS_TYPE": 0, "CLASSIFICATION_TYPE": "U", "NORAD_CAT_ID": 35898, "ELEMENT_SET_NO": 999, "REV_AT_EPOCH": 66875, "BSTAR": 0.00065982938, "MEAN_MOTION_DOT": 7.606e-05, "MEAN_MOTION_DDOT": 0}, "tle": {"line1": "1 35898U 93036AUM 25351.10591073  .00007606  00000+0  65983-3 0  9998", "line2": "2 35898  73.9918 288.6268 0079245  70.8936 307.5480 14.94779467668759"}}, "geometry": {"type": "Point", "coordinates": [111.47287914504426, -25.63976034112676]}}, {"type": "Feature", "properties": {"norad_id": 35901, "name": "COSMOS 2251 DEB", "group": "cosmos-2251-debris", "lat": 17.712307128067206, "lon": -176.5455461533921, "alt_km": 548.5862023062637, "timestamp": "2025-12-19T14:48:36.645070+00:00", "meta": {"OBJECT_NAME": "COSMOS 2251 DEB", "OBJECT_ID": "1993-036AUQ", "EPOCH": "2025-12-18T07:54:31.180320", "MEAN_MOTION": 15.07563812, "ECCENTRICITY": 0.00074748, "INCLINATION": 74.0102, "RA_OF_ASC_NODE": 11.3599, "ARG_OF_PERICENTER": 345.0376, "MEAN_ANOMALY": 31.2157, "EPHEMERIS_TYPE": 0, "CLASSIFICATION_TYPE": "U", "NORAD_CAT_ID": 35901, "ELEMENT_SET_NO": 999, "REV_AT_EPOCH": 86211, "BSTAR": 0.0030424151, "MEAN_MOTION_DOT": 0.00046563, "MEAN_MOTION_DDOT": 0}, "tle": {"line1": "1 35901U 93036AUQ 25352.32952755  .00046563  00000+0  30424-2 0  9992", "line2": "2 35901  74.0102  11.3599 0007474 345.0376  31.2157 15.07563812862117"}}, "geometry": {"type": "Point", "coordinates": [-176.5455461533921, 17.712307128067206]}}, {"type": "Feature", "properties": {"norad_id": 35902, "name": "COSMOS 2251 DEB", "group": "cosmos-2251-debris", "lat": -69.42392461274223, "lon": 92.02845669240982, "alt_km": 793.3790283102571, "timestamp": "2025-12-19T14:48:36.645080+00:00", "meta": {"OBJECT_NAME": "COSMOS 2251 DEB", "OBJECT_ID": "1993-036AUR", "EPOCH": "2025-12-12T01:33:56.017152", "MEAN_MOTION": 14.26898947, "ECCENTRICITY": 0.01020569, "INCLINATION": 73.9828, "RA_OF_ASC_NODE": 235.8058, "ARG_OF_PERICENTER": 350.6999, "MEAN_ANOMALY": 9.2255, "EPHEMERIS_TYPE": 0, "CLASSIFICATION_TYPE": "U", "NORAD_CAT_ID": 35902, "ELEMENT_SET_NO": 999, "REV_AT_EPOCH": 61120, "BSTAR": 0.0016300387, "MEAN_MOTION_DOT": 4.159e-05, "MEAN_MOTION_DDOT": 0}, "tle": {"line1": "1 35902U 93036AUR 25346.06523168  .00004159  00000+0  16300-2 0  9991", "line2": "2 35902  73.9828 235.8058 0102056 350.6999   9.2255 14.26898947611205"}}, "geometry": {"type": "Point", "coordinates": [92.02845669240982, -69.42392461274223]}}, {"type": "Feature", "properties": {"norad_id": 35905, "name": "COSMOS 2251 DEB", "group": "cosmos-2251-debris", "lat": -13.641469649602186, "lon": 20.835968046894934, "alt_km": 563.7255477897197, "timestamp": "2025-12-19T14:48:36.645090+00:00", "meta": {"OBJECT_NAME": "COSMOS 2251 DEB", "OBJECT_ID": "1993-036AUU", "EPOCH": "2025-12-18T07:30:24.992928", "MEAN_MOTION": 14.99094801, "ECCENTRICITY": 0.00906852, "INCLINATION": 74.0306, "RA_OF_ASC_NODE": 199.498, "ARG_OF_PERICENTER": 278.2815, "MEAN_ANOMALY": 80.8096, "EPHEMERIS_TYPE": 0, "CLASSIFICATION_TYPE": "U", "NORAD_CAT_ID": 35905, "ELEMENT_SET_NO": 999, "REV_AT_EPOCH": 88666, "BSTAR": 0.00045535942, "MEAN_MOTION_DOT": 5.988e-05, "MEAN_MOTION_DDOT": 0}, "tle": {"line1": "1 35905U 93036AUU 25352.31278927  .00005988  00000+0  45536-3 0  9994", "line2": "2 35905  74.0306 199.4980 0090685 278.2815  80.8096 14.99094801886665"}}, "geometry": {"type": "Point", "coordinates": [20.835968046894934, -13.641469649602186]}}, {"type": "Feature", "properties": {"norad_id": 35959, "name": "COSMOS 2251 DEB", "group": "cosmos-2251-debris", "lat": 18.069417489729283, "lon": 114.11425310833371, "alt_km": 790.3543429818019, "timestamp": "2025-12-19T14:48:36.645100+00:00", "meta": {"OBJECT_NAME": "COSMOS 2251 DEB", "OBJECT_ID": "1993-036AUZ", "EPOCH": "2025-12-18T02:54:20.383200", "MEAN_MOTION": 14.34139826, "ECCENTRICITY": 0.00217869, "INCLINATION": 74.0326, "RA_OF_ASC_NODE": 302.2118, "ARG_OF_PERICENTER": 21.1868, "MEAN_ANOMALY": 339.0181, "EPHEMERIS_TYPE": 0, "CLASSIFICATION_TYPE": "U", "NORAD_CAT_ID": 35959, "ELEMENT_SET_NO": 999, "REV_AT_EPOCH": 85005, "BSTAR": 0.00010326625, "MEAN_MOTION_DOT": 2.64e-06, "MEAN_MOTION_DDOT": 0}, "tle": {"line1": "1 35959U 93036AUZ 25352.12106925  .00000264  00000+0  10327-3 0  9992", "line2": "2 35959  74.0326 302.2118 0021786  21.1868 339.0181 14.34139826850056"}}, "geometry": {"type": "Point", "coordinates": [114.11425310833371, 18.069417489729283]}}, {"type": "Feature", "properties": {"norad_id": 35961, "name": "COSMOS 2251 DEB", "group": "cosmos-2251-debris", "lat": 70.68589889168305, "lon": -43.28108826666996, "alt_km": 739.8364709320876, "timestamp": "2025-12-19T14:48:36.645110+00:00", "meta": {"OBJECT_NAME": "COSMOS 2251 DEB", "OBJECT_ID": "1993-036AVB", "EPOCH": "2025-12-18T21:15:12.372768", "MEAN_MOTION": 14.05418101, "ECCENTRICITY": 0.01915239, "INCLINATION": 73.9239, "RA_OF_ASC_NODE": 193.3704, "ARG_OF_PERICENTER": 125.5075, "MEAN_ANOMALY": 236.4097, "EPHEMERIS_TYPE": 0, "CLASSIFICATION_TYPE": "U", "NORAD_CAT_ID": 35961, "ELEMENT_SET_NO": 999, "REV_AT_EPOCH": 62768, "BSTAR": 0.0011788636, "MEAN_MOTION_DOT": 2.232e-05, "MEAN_MOTION_DDOT": 0}, "tle": {"line1": "1 35961U 93036AVB 25352.88555987  .00002232  00000+0  11789-2 0  9993", "line2": "2 35961  73.9239 193.3704 0191523 125.5075 236.4097 14.05418101627687"}}, "geometry": {"type": "Point", "coordinates": [-43.28108826666996, 70.68589889168305]}}, {"type": "Feature", "properties": {"norad_id": 35979, "name": "COSMOS 2251 DEB", "group": "cosmos-2251-debris", "lat": -72.64689241951865, "lon": 111.52003824132558, "alt_km": 654.4175243673026, "timestamp": "2025-12-19T14:48:36.645120+00:00", "meta": {"OBJECT_NAME": "COSMOS 2251 DEB", "OBJECT_ID": "1993-036AVV", "EPOCH": "2025-12-17T22:37:43.321728", "MEAN_MOTION": 14.74704209, "ECCENTRICITY": 0.00591052, "INCLINATION": 74.0093, "RA_OF_ASC_NODE": 228.2039, "ARG_OF_PERICENTER": 359.1807, "MEAN_ANOMALY": 19.9586, "EPHEMERIS_TYPE": 0, "CLASSIFICATION_TYPE": "U", "NORAD_CAT_ID": 35979, "ELEMENT_SET_NO": 999, "REV_AT_EPOCH": 88710, "BSTAR": 0.00063181032, "MEAN_MOTION_DOT": 4.31e-05, "MEAN_MOTION_DDOT": 0}, "tle": {"line1": "1 35979U 93036AVV 25351.94286252  .00004310  00000+0  63181-3 0  9997", "line2": "2 35979  74.0093 228.2039 0059105 359.1807  19.9586 14.74704209887107"}}, "geometry": {"type": "Point", "coordinates": [111.52003824132558, -72.64689241951865]}}]}